SAUDISAT 2              
1 28371U 04025F   26170.57045906  .00000171  00000+0  49334-4 0  9999
2 28371  98.5507 170.6140 0023518 290.5721  69.2953 14.56685005166097
COSMOS 2407             
1 28380U 04028A   26170.75442986  .00000060  00000+0  45561-4 0  9996
2 28380  82.9607  72.9329 0037886 244.4854 169.8403 13.76334951100239
COSMOS 2414             
1 28521U 05002A   26170.69949524  .00000038  00000+0  19343-4 0  9993
2 28521  82.9497  41.7461 0039322 323.9905  35.8610 13.87926686 84160
INMARSAT 4-F1           
1 28628U 05009A   26170.59132154  .00000025  00000+0  00000+0 0  9991
2 28628   5.1720  42.7716 0002618  43.3469 212.6804  1.00271879 77693
SJ-7                    
1 28737U 05024A   26170.65541725  .00006294  00000+0  28145-3 0  9992
2 28737  97.7281 200.8255 0016103  29.8299 330.3850 15.21573761148402
CUBESAT XI-V            
1 28895U 05043F   26170.37304894  .00001074  00000+0  17676-3 0  9999
2 28895  98.2987 326.0406 0013797 193.6141 166.4695 14.72636457102072
HINODE (SOLAR-B)        
1 29479U 06041A   26170.56998425  .00000478  00000+0  90631-4 0  9997
2 29479  98.0545 186.6874 0015968 281.5251  78.4161 14.68625622 55220
SHIJIAN-6 02B (SJ-6 02B)
1 29506U 06046B   26170.81227080  .00000828  00000+0  68818-4 0  9994
2 29506  97.7153 199.8551 0015415  53.0599 307.2034 15.01381763 71137
DMSP 5D-3 F17 (USA 191) 
1 29522U 06050A   26170.78601425 -.00000009  00000+0  17477-4 0  9999
2 29522  98.7378 177.3029 0011079  52.6831 307.5351 14.14993179 12797
LAPAN-TUBSAT            
1 29709U 07001A   26170.81319659  .00000251  00000+0  35303-4 0  9998
2 29709  98.1341 170.0966 0012107 170.7462 189.3978 14.85950772 51540
HAIYANG-1B              
1 31113U 07010A   26170.59201378  .00000065  00000+0  40663-4 0  9991
2 31113  98.3495 152.3440 0013180 188.9814 171.1136 14.31027414   984
COSMO-SKYMED 2          
1 32376U 07059A   26170.86146616  .00000269  00000+0  40322-4 0  9997
2 32376  97.8887 354.4205 0001360  88.1454 271.9915 14.82156816  2405
CARTOSAT-2A             
1 32783U 08021A   26170.88755536  .00000313  00000+0  48811-4 0  9999
2 32783  97.7626 219.5043 0013237 101.0865 259.1836 14.79240850979204
CUTE-1.7+APD II (CO-65) 
1 32785U 08021C   26170.90038654  .00004758  00000+0  30099-3 0  9994
2 32785  97.8277 152.3753 0009494  30.2474 329.9300 15.09473052985609
SEEDS II (CO-66)        
1 32791U 08021J   26170.55102446  .00014814  00000+0  46963-3 0  9994
2 32791  97.7522 168.5617 0000744 349.7207  10.4018 15.32817335987654
YUBILEINY (RS30)        
1 32953U 08025A   26170.83471623 -.00000059  00000+0 -49497-3 0  9998
2 32953  82.5040 353.7925 0018759 307.8284  52.1097 12.43179151820029
FENGYUN 3A              
1 32958U 08026A   26170.72570560  .00000060  00000+0  49120-4 0  9996
2 32958  98.6883 111.5114 0009687 117.0201 243.1965 14.19571589935767
HUANJING 1A (HJ-1A)     
1 33320U 08041A   26170.86342483  .00001223  00000+0  15263-3 0  9995
2 33320  97.6685 156.5986 0020197 126.3666 233.9416 14.83992527958801
HUANJING 1B (HJ-1B)     
1 33321U 08041B   26170.90117235 -.00000103  00000+0 -60818-5 0  9992
2 33321  97.6521 159.7982 0036274 172.0353 188.1445 14.83317865958816
SHIJIAN-6 03A (SJ-6 03A)
1 33408U 08053A   26170.81885963  .00002931  00000+0  15105-3 0  9997
2 33408  97.8406 204.2311 0011406  12.1241 348.0263 15.17184279963368
SHIJIAN-6 03B (SJ-6 03B)
1 33409U 08053B   26170.82702270  .00000026  00000+0  65628-5 0  9998
2 33409  97.8565 190.7628 0020491  36.3902 323.8712 15.04308123963149
